     2              NAVIGATION DATA                         RINEX VERSION / TYPE
CCRINEXN V1.6.0 UX  CDDIS               03-JAN-25 23:53     PGM / RUN BY / DATE 
IGS BROADCAST EPHEMERIS FILE                                COMMENT             
    0.2794D-07  0.2235D-07 -0.1192D-06  0.5960D-07          ION ALPHA           
    0.1516D+06 -0.1966D+06 -0.6554D+05  0.3277D+06          ION BETA            
    0.000000000000D+00-0.355271367880D-14    61440     2348 DELTA-UTC: A0,A1,T,W
    18                                                      LEAP SECONDS        
                                                            END OF HEADER       
25 25  1  3 18  0  0.0 0.497271306813D-03-0.568434188608D-12 0.000000000000D+00
    0.180000000000D+03 0.105937500000D+02 0.521700302340D-08 0.246336698069D+01
    0.337138772011D-06 0.123071825365D-01 0.522285699844D-05 0.515367893219D+04
    0.496800000000D+06 0.223517417908D-07 0.230475055023D+01-0.186264514923D-06
    0.948861339472D+00 0.269937500000D+03 0.110766973843D+01-0.819891294621D-08
   -0.425017703693D-10 0.100000000000D+01 0.234700000000D+04 0.000000000000D+00
    0.200000000000D+01 0.000000000000D+00 0.558793500000D-08 0.180000000000D+03
    0.489660000000D+06 0.400000000000D+01 0.000000000000D+00 0.000000000000D+00
26 25  1  3 18  0  0.0-0.338349491358D-04-0.148929757415D-10 0.000000000000D+00
    0.580000000000D+02 0.180937500000D+02 0.586917304604D-08 0.167614480860D+01
    0.104866921902D-05 0.979347061366D-02 0.573322176933D-05 0.515374551010D+04
    0.496800000000D+06-0.178813934326D-06 0.223813369939D+01 0.122934579849D-06
    0.929580858923D+00 0.255531250000D+03 0.604284244327D+00-0.872286334227D-08
    0.296440919383D-10 0.100000000000D+01 0.234700000000D+04 0.000000000000D+00
    0.280000000000D+01 0.000000000000D+00 0.651925802231D-08 0.580000000000D+02
    0.489618000000D+06 0.400000000000D+01 0.000000000000D+00 0.000000000000D+00
27 25  1  3 18  0  0.0-0.335052609444D-04 0.454747350886D-12 0.000000000000D+00
    0.110000000000D+03 0.534375000000D+01 0.468090926437D-08-0.611759878597D-01
    0.370666384697D-06 0.131349818548D-01 0.941567122936D-05 0.515368367004D+04
    0.496800000000D+06 0.260770320892D-07-0.292147802463D+01 0.154599547386D-06
    0.959204666222D+00 0.194875000000D+03 0.805720297210D+00-0.824284334751D-08
   -0.660027492794D-09 0.100000000000D+01 0.234700000000D+04 0.000000000000D+00
    0.200000000000D+01 0.000000000000D+00 0.186264514923D-08 0.110000000000D+03
    0.491388000000D+06 0.400000000000D+01 0.000000000000D+00 0.000000000000D+00
28 25  1  3 18  0  0.0-0.526008661836D-03-0.100044417195D-10 0.000000000000D+00
    0.215000000000D+03-0.412500000000D+01 0.454768942952D-08 0.214669483286D+01
   -0.163912773132D-06 0.436304020695D-03 0.114906579256D-04 0.515379309082D+04
    0.496800000000D+06-0.204890966415D-07 0.124668603782D+01 0.279396772385D-07
    0.961171002207D+00 0.159437500000D+03 0.141841413928D+01-0.789140013706D-08
    0.538593863168D-09 0.100000000000D+01 0.234700000000D+04 0.000000000000D+00
    0.200000000000D+01 0.000000000000D+00-0.931322574616D-08 0.727000000000D+03
    0.489621000000D+06 0.400000000000D+01 0.000000000000D+00 0.000000000000D+00
29 25  1  3 18  0  0.0-0.550341792405D-03 0.329691829393D-11 0.000000000000D+00
    0.720000000000D+02 0.186250000000D+02 0.422767609968D-08-0.209376839511D+00
    0.840052962303D-06 0.288677192293D-02 0.104624778032D-04 0.515372500229D+04
    0.496800000000D+06 0.279396772385D-07-0.283615093140D+01-0.111758708954D-07
    0.968455160982D+00 0.182406250000D+03 0.264379284989D+01-0.782461164077D-08
   -0.548594279725D-09 0.100000000000D+01 0.234700000000D+04 0.000000000000D+00
    0.200000000000D+01 0.000000000000D+00-0.977888703346D-08 0.720000000000D+02
    0.489622000000D+06 0.400000000000D+01 0.000000000000D+00 0.000000000000D+00
30 25  1  3 18  0  0.0-0.247148331255D-03 0.829913915368D-11 0.000000000000D+00
    0.230000000000D+02-0.506250000000D+01 0.507413992972D-08-0.308471722649D+01
   -0.292435288429D-06 0.724928826094D-02 0.107269734144D-04 0.515375571251D+04
    0.496800000000D+06 0.745058059692D-08 0.127452280730D+01-0.113621354103D-06
    0.935270113686D+00 0.163187500000D+03-0.245358369555D+01-0.804319217410D-08
    0.522164607395D-09 0.100000000000D+01 0.234700000000D+04 0.000000000000D+00
    0.200000000000D+01 0.000000000000D+00 0.372529029846D-08 0.230000000000D+02
    0.491316000000D+06 0.400000000000D+01 0.000000000000D+00 0.000000000000D+00
31 25  1  3 18  0  0.0-0.218657311052D-03 0.795807864051D-12 0.000000000000D+00
    0.119000000000D+03-0.281250000000D+01 0.470626746350D-08 0.232700011957D+01
   -0.195577740669D-06 0.106971556088D-01 0.115651637316D-04 0.515360895348D+04
    0.496800000000D+06-0.121071934700D-06 0.129967286921D+01-0.149011611938D-06
    0.953992397361D+00 0.152406250000D+03 0.791497630631D+00-0.786354183379D-08
    0.562880589093D-09 0.100000000000D+01 0.234700000000D+04 0.000000000000D+00
    0.200000000000D+01 0.000000000000D+00-0.135041773319D-07 0.119000000000D+03
    0.489618000000D+06 0.400000000000D+01 0.000000000000D+00 0.000000000000D+00
32 25  1  3 18  0  0.0-0.548084732145D-03 0.659383658785D-11 0.000000000000D+00
    0.140000000000D+02-0.115375000000D+03 0.436732477375D-08 0.524231958240D+00
   -0.608526170254D-05 0.826697179582D-02 0.877119600773D-05 0.515377829933D+04
    0.496800000000D+06-0.117346644402D-06 0.220230939720D+00 0.912696123123D-07
    0.964081423598D+00 0.212750000000D+03-0.211335829893D+01-0.817569769348D-08
   -0.187507810453D-09 0.100000000000D+01 0.234700000000D+04 0.000000000000D+00
    0.200000000000D+01 0.000000000000D+00 0.931322574616D-09 0.140000000000D+02
    0.489618000000D+06 0.400000000000D+01 0.000000000000D+00 0.000000000000D+00
23 25  1  3 18 44 32.0 0.396698713303D-03 0.761701812735D-11 0.000000000000D+00
    0.176000000000D+03-0.571875000000D+01 0.416660212713D-08-0.290702937525D+01
   -0.210478901863D-06 0.498758745380D-02 0.202096998692D-05 0.515362727165D+04
    0.499472000000D+06 0.931322574616D-08-0.842772354863D+00-0.558793544769D-07
    0.982331092570D+00 0.352593750000D+03-0.286532260924D+01-0.815212528303D-08
    0.112504686272D-09 0.100000000000D+01 0.234700000000D+04 0.000000000000D+00
    0.200000000000D+01 0.000000000000D+00-0.838190300000D-08 0.944000000000D+03
    0.495600000000D+06 0.400000000000D+01 0.000000000000D+00 0.000000000000D+00
14 25  1  3 18 59 44.0 0.573077704758D-03 0.738964445190D-11 0.000000000000D+00
    0.111000000000D+03 0.169375000000D+02 0.536629495630D-08 0.303246102759D+01
    0.923871994019D-06 0.514886190649D-02 0.565499067307D-05 0.515369433212D+04
    0.500384000000D+06-0.856816768646D-07 0.234586423608D+01-0.521540641785D-07
    0.944125449403D+00 0.263187500000D+03-0.286540276252D+01-0.834391898629D-08
    0.475019786481D-10 0.100000000000D+01 0.234700000000D+04 0.000000000000D+00
    0.200000000000D+01 0.000000000000D+00-0.791624188423D-08 0.367000000000D+03
    0.496398000000D+06 0.400000000000D+01 0.000000000000D+00 0.000000000000D+00
 7 25  1  3 19 59 44.0-0.139563344419D-04 0.682121026330D-12 0.000000000000D+00
    0.290000000000D+02-0.381250000000D+01 0.457804783693D-08-0.186162288148D+01
   -0.255182385445D-06 0.189120583236D-01 0.105202198029D-04 0.515376304245D+04
    0.503984000000D+06 0.337138772011D-06 0.127717300482D+01-0.447034835815D-07
    0.950102360674D+00 0.162093750000D+03-0.208570835287D+01-0.771925010918D-08
    0.675028117631D-09 0.100000000000D+01 0.234700000000D+04 0.000000000000D+00
    0.200000000000D+01 0.000000000000D+00-0.107102096081D-07 0.290000000000D+02
    0.498486000000D+06 0.400000000000D+01 0.000000000000D+00 0.000000000000D+00
15 25  1  3 19 59 44.0 0.247394200414D-03 0.454747350886D-11 0.000000000000D+00
    0.100000000000D+02-0.107593750000D+03 0.498592196938D-08-0.109736737193D+00
   -0.559911131859D-05 0.161216720007D-01 0.681355595589D-05 0.515374839783D+04
    0.503984000000D+06-0.247731804848D-06 0.712115576072D-01 0.111758708954D-06
    0.938013981853D+00 0.238437500000D+03 0.138739549372D+01-0.867571852136D-08
   -0.964325882329D-10 0.100000000000D+01 0.234700000000D+04 0.000000000000D+00
    0.200000000000D+01 0.000000000000D+00-0.102445483208D-07 0.100000000000D+02
    0.503839000000D+06 0.400000000000D+01 0.000000000000D+00 0.000000000000D+00
24 25  1  3 19 59 44.0-0.467595644295D-03 0.375166564481D-11 0.000000000000D+00
    0.120000000000D+02-0.346875000000D+01 0.510521265260D-08-0.977779881280D+00
    0.106170773506D-06 0.164172939258D-01 0.102166086435D-04 0.515369341278D+04
    0.503984000000D+06 0.121071934700D-06 0.117621080492D+01 0.335276126862D-06
    0.933947208570D+00 0.170687500000D+03 0.104327250005D+01-0.837570602463D-08
    0.443232748137D-09 0.100000000000D+01 0.234700000000D+04 0.000000000000D+00
    0.200000000000D+01 0.000000000000D+00 0.232830600000D-08 0.120000000000D+02
    0.501120000000D+06 0.400000000000D+01 0.000000000000D+00 0.000000000000D+00
27 25  1  3 19 59 44.0-0.335029326379D-04 0.454747350886D-12 0.000000000000D+00
    0.330000000000D+02 0.981250000000D+01 0.469340978507D-08 0.986626751090D+00
    0.732019543648D-06 0.131359893130D-01 0.996701419354D-05 0.515368585014D+04
    0.503984000000D+06-0.521540641785D-07-0.292153691733D+01 0.162050127983D-06
    0.959199785927D+00 0.188406250000D+03 0.805758994319D+00-0.821355641331D-08
   -0.693600319809D-09 0.100000000000D+01 0.234700000000D+04 0.000000000000D+00
    0.200000000000D+01 0.000000000000D+00 0.186264514923D-08 0.330000000000D+02
    0.496818000000D+06 0.400000000000D+01 0.000000000000D+00 0.000000000000D+00
